CCSDS_OMM_VERS = 2.0
CREATION_DATE  = 
ORIGINATOR     = 

OBJECT_NAME    = STARLINK-36317
OBJECT_ID      = 2026-026R
CENTER_NAME    = EARTH
REF_FRAME      = TEME
TIME_SYSTEM    = UTC
MEAN_ELEMENT_THEORY = SGP/SGP4

EPOCH          = 2026-03-11T04:00:00.999936
MEAN_MOTION    = 15.43476705
ECCENTRICITY   = .0001677
INCLINATION    = 97.2844
RA_OF_ASC_NODE = 124.7683
ARG_OF_PERICENTER = 76.4291
MEAN_ANOMALY   = 267.3143

EPHEMERIS_TYPE = 0
CLASSIFICATION_TYPE = U
NORAD_CAT_ID   = 67736
ELEMENT_SET_NO = 999
REV_AT_EPOCH   = 555
BSTAR          = -.46473E-1
MEAN_MOTION_DOT = -.186887E-1
MEAN_MOTION_DDOT = 0

CCSDS_OMM_VERS = 2.0
CREATION_DATE  = 
ORIGINATOR     = 

OBJECT_NAME    = STARLINK-36330
OBJECT_ID      = 2026-026S
CENTER_NAME    = EARTH
REF_FRAME      = TEME
TIME_SYSTEM    = UTC
MEAN_ELEMENT_THEORY = SGP/SGP4

EPOCH          = 2026-03-11T04:00:00.999936
MEAN_MOTION    = 15.43822613
ECCENTRICITY   = .000162
INCLINATION    = 97.2843
RA_OF_ASC_NODE = 124.7799
ARG_OF_PERICENTER = 71.4846
MEAN_ANOMALY   = 299.1701

EPHEMERIS_TYPE = 0
CLASSIFICATION_TYPE = U
NORAD_CAT_ID   = 67737
ELEMENT_SET_NO = 999
REV_AT_EPOCH   = 555
BSTAR          = -.45506E-1
MEAN_MOTION_DOT = -.1853233E-1
MEAN_MOTION_DDOT = 0

CCSDS_OMM_VERS = 2.0
CREATION_DATE  = 
ORIGINATOR     = 

OBJECT_NAME    = STARLINK-36327
OBJECT_ID      = 2026-026T
CENTER_NAME    = EARTH
REF_FRAME      = TEME
TIME_SYSTEM    = UTC
MEAN_ELEMENT_THEORY = SGP/SGP4

EPOCH          = 2026-03-11T04:00:00.999936
MEAN_MOTION    = 15.43770401
ECCENTRICITY   = .0001537
INCLINATION    = 97.2841
RA_OF_ASC_NODE = 124.7866
ARG_OF_PERICENTER = 84.7633
MEAN_ANOMALY   = 301.4537

EPHEMERIS_TYPE = 0
CLASSIFICATION_TYPE = U
NORAD_CAT_ID   = 67738
ELEMENT_SET_NO = 999
REV_AT_EPOCH   = 555
BSTAR          = -.46237E-1
MEAN_MOTION_DOT = -.1877005E-1
MEAN_MOTION_DDOT = 0

CCSDS_OMM_VERS = 2.0
CREATION_DATE  = 
ORIGINATOR     = 

OBJECT_NAME    = STARLINK-36329
OBJECT_ID      = 2026-026U
CENTER_NAME    = EARTH
REF_FRAME      = TEME
TIME_SYSTEM    = UTC
MEAN_ELEMENT_THEORY = SGP/SGP4

EPOCH          = 2026-03-11T04:00:00.999936
MEAN_MOTION    = 15.44796377
ECCENTRICITY   = .0001739
INCLINATION    = 97.2847
RA_OF_ASC_NODE = 124.8213
ARG_OF_PERICENTER = 68.3624
MEAN_ANOMALY   = 38.2642

EPHEMERIS_TYPE = 0
CLASSIFICATION_TYPE = U
NORAD_CAT_ID   = 67739
ELEMENT_SET_NO = 999
REV_AT_EPOCH   = 555
BSTAR          = -.43917E-1
MEAN_MOTION_DOT = -.1849329E-1
MEAN_MOTION_DDOT = 0

CCSDS_OMM_VERS = 2.0
CREATION_DATE  = 
ORIGINATOR     = 

OBJECT_NAME    = STARLINK-36737
OBJECT_ID      = 2026-026V
CENTER_NAME    = EARTH
REF_FRAME      = TEME
TIME_SYSTEM    = UTC
MEAN_ELEMENT_THEORY = SGP/SGP4

EPOCH          = 2026-03-11T04:00:00.999936
MEAN_MOTION    = 15.43915790
ECCENTRICITY   = .0001649
INCLINATION    = 97.2843
RA_OF_ASC_NODE = 124.7929
ARG_OF_PERICENTER = 62.9769
MEAN_ANOMALY   = 336.8661

EPHEMERIS_TYPE = 0
CLASSIFICATION_TYPE = U
NORAD_CAT_ID   = 67740
ELEMENT_SET_NO = 999
REV_AT_EPOCH   = 555
BSTAR          = -.45344E-1
MEAN_MOTION_DOT = -.1852576E-1
MEAN_MOTION_DDOT = 0

CCSDS_OMM_VERS = 2.0
CREATION_DATE  = 
ORIGINATOR     = 

OBJECT_NAME    = STARLINK-36740
OBJECT_ID      = 2026-026W
CENTER_NAME    = EARTH
REF_FRAME      = TEME
TIME_SYSTEM    = UTC
MEAN_ELEMENT_THEORY = SGP/SGP4

EPOCH          = 2026-03-11T04:00:00.999936
MEAN_MOTION    = 15.49209975
ECCENTRICITY   = .0001456
INCLINATION    = 97.2850
RA_OF_ASC_NODE = 124.7585
ARG_OF_PERICENTER = 88.1686
MEAN_ANOMALY   = 237.3836

EPHEMERIS_TYPE = 0
CLASSIFICATION_TYPE = U
NORAD_CAT_ID   = 67741
ELEMENT_SET_NO = 999
REV_AT_EPOCH   = 555
BSTAR          = -.60042E-3
MEAN_MOTION_DOT = -.32635E-3
MEAN_MOTION_DDOT = 0

CCSDS_OMM_VERS = 2.0
CREATION_DATE  = 
ORIGINATOR     = 

OBJECT_NAME    = STARLINK-36693
OBJECT_ID      = 2026-026X
CENTER_NAME    = EARTH
REF_FRAME      = TEME
TIME_SYSTEM    = UTC
MEAN_ELEMENT_THEORY = SGP/SGP4

EPOCH          = 2026-03-11T04:00:00.999936
MEAN_MOTION    = 15.49381301
ECCENTRICITY   = .0000886
INCLINATION    = 97.2850
RA_OF_ASC_NODE = 124.7558
ARG_OF_PERICENTER = 94.8158
MEAN_ANOMALY   = 226.4248

EPHEMERIS_TYPE = 0
CLASSIFICATION_TYPE = U
NORAD_CAT_ID   = 67742
ELEMENT_SET_NO = 999
REV_AT_EPOCH   = 569
BSTAR          = -.10231E-1
MEAN_MOTION_DOT = -.524506E-2
MEAN_MOTION_DDOT = 0

CCSDS_OMM_VERS = 2.0
CREATION_DATE  = 
ORIGINATOR     = 

OBJECT_NAME    = STARLINK-36717
OBJECT_ID      = 2026-026Y
CENTER_NAME    = EARTH
REF_FRAME      = TEME
TIME_SYSTEM    = UTC
MEAN_ELEMENT_THEORY = SGP/SGP4

EPOCH          = 2026-03-11T04:00:00.999936
MEAN_MOTION    = 15.46295571
ECCENTRICITY   = .0001703
INCLINATION    = 97.2846
RA_OF_ASC_NODE = 124.7845
ARG_OF_PERICENTER = 82.2527
MEAN_ANOMALY   = 307.8369

EPHEMERIS_TYPE = 0
CLASSIFICATION_TYPE = U
NORAD_CAT_ID   = 67743
ELEMENT_SET_NO = 999
REV_AT_EPOCH   = 569
BSTAR          = -.46389E-1
MEAN_MOTION_DOT = -.2034386E-1
MEAN_MOTION_DDOT = 0

CCSDS_OMM_VERS = 2.0
CREATION_DATE  = 
ORIGINATOR     = 

OBJECT_NAME    = STARLINK-36692
OBJECT_ID      = 2026-026Z
CENTER_NAME    = EARTH
REF_FRAME      = TEME
TIME_SYSTEM    = UTC
MEAN_ELEMENT_THEORY = SGP/SGP4

EPOCH          = 2026-03-11T04:00:00.999936
MEAN_MOTION    = 15.48273148
ECCENTRICITY   = .0001368
INCLINATION    = 97.2846
RA_OF_ASC_NODE = 124.7687
ARG_OF_PERICENTER = 108.3457
MEAN_ANOMALY   = 244.2249

EPHEMERIS_TYPE = 0
CLASSIFICATION_TYPE = U
NORAD_CAT_ID   = 67744
ELEMENT_SET_NO = 999
REV_AT_EPOCH   = 555
BSTAR          = -.41114E-1
MEAN_MOTION_DOT = -.194189E-1
MEAN_MOTION_DDOT = 0

CCSDS_OMM_VERS = 2.0
CREATION_DATE  = 
ORIGINATOR     = 

OBJECT_NAME    = 2026-027A
OBJECT_ID      = 2026-027A
CENTER_NAME    = EARTH
REF_FRAME      = TEME
TIME_SYSTEM    = UTC
MEAN_ELEMENT_THEORY = SGP/SGP4

EPOCH          = 2026-03-11T03:41:38.251680
MEAN_MOTION    = 15.17744140
ECCENTRICITY   = .0010289
INCLINATION    = 97.4903
RA_OF_ASC_NODE = 199.1515
ARG_OF_PERICENTER = 189.0505
MEAN_ANOMALY   = 171.0545

EPHEMERIS_TYPE = 0
CLASSIFICATION_TYPE = U
NORAD_CAT_ID   = 67746
ELEMENT_SET_NO = 999
REV_AT_EPOCH   = 408
BSTAR          = .51937E-3
MEAN_MOTION_DOT = .10436E-3
MEAN_MOTION_DDOT = 0

CCSDS_OMM_VERS = 2.0
CREATION_DATE  = 
ORIGINATOR     = 

OBJECT_NAME    = 2026-027B
OBJECT_ID      = 2026-027B
CENTER_NAME    = EARTH
REF_FRAME      = TEME
TIME_SYSTEM    = UTC
MEAN_ELEMENT_THEORY = SGP/SGP4

EPOCH          = 2026-03-11T05:13:59.899296
MEAN_MOTION    = 15.17846158
ECCENTRICITY   = .0010389
INCLINATION    = 97.4898
RA_OF_ASC_NODE = 199.2170
ARG_OF_PERICENTER = 191.1935
MEAN_ANOMALY   = 168.9069

EPHEMERIS_TYPE = 0
CLASSIFICATION_TYPE = U
NORAD_CAT_ID   = 67747
ELEMENT_SET_NO = 999
REV_AT_EPOCH   = 409
BSTAR          = .52229E-3
MEAN_MOTION_DOT = .10526E-3
MEAN_MOTION_DDOT = 0

CCSDS_OMM_VERS = 2.0
CREATION_DATE  = 
ORIGINATOR     = 

OBJECT_NAME    = 2026-027C
OBJECT_ID      = 2026-027C
CENTER_NAME    = EARTH
REF_FRAME      = TEME
TIME_SYSTEM    = UTC
MEAN_ELEMENT_THEORY = SGP/SGP4

EPOCH          = 2026-03-11T03:37:01.144416
MEAN_MOTION    = 15.17839533
ECCENTRICITY   = .0010756
INCLINATION    = 97.4910
RA_OF_ASC_NODE = 199.1579
ARG_OF_PERICENTER = 193.7035
MEAN_ANOMALY   = 166.3908

EPHEMERIS_TYPE = 0
CLASSIFICATION_TYPE = U
NORAD_CAT_ID   = 67748
ELEMENT_SET_NO = 999
REV_AT_EPOCH   = 408
BSTAR          = .36817E-3
MEAN_MOTION_DOT = .7396E-4
MEAN_MOTION_DDOT = 0

CCSDS_OMM_VERS = 2.0
CREATION_DATE  = 
ORIGINATOR     = 

OBJECT_NAME    = 2026-027D
OBJECT_ID      = 2026-027D
CENTER_NAME    = EARTH
REF_FRAME      = TEME
TIME_SYSTEM    = UTC
MEAN_ELEMENT_THEORY = SGP/SGP4

EPOCH          = 2026-03-11T03:30:55.130688
MEAN_MOTION    = 15.18209284
ECCENTRICITY   = .0010315
INCLINATION    = 97.4905
RA_OF_ASC_NODE = 199.1619
ARG_OF_PERICENTER = 198.8174
MEAN_ANOMALY   = 161.2680

EPHEMERIS_TYPE = 0
CLASSIFICATION_TYPE = U
NORAD_CAT_ID   = 67749
ELEMENT_SET_NO = 999
REV_AT_EPOCH   = 403
BSTAR          = .61098E-3
MEAN_MOTION_DOT = .12457E-3
MEAN_MOTION_DDOT = 0

CCSDS_OMM_VERS = 2.0
CREATION_DATE  = 
ORIGINATOR     = 

OBJECT_NAME    = 2026-027E
OBJECT_ID      = 2026-027E
CENTER_NAME    = EARTH
REF_FRAME      = TEME
TIME_SYSTEM    = UTC
MEAN_ELEMENT_THEORY = SGP/SGP4

EPOCH          = 2026-03-11T03:31:17.553216
MEAN_MOTION    = 15.18153138
ECCENTRICITY   = .0009606
INCLINATION    = 97.4915
RA_OF_ASC_NODE = 199.1655
ARG_OF_PERICENTER = 199.4825
MEAN_ANOMALY   = 160.6043

EPHEMERIS_TYPE = 0
CLASSIFICATION_TYPE = U
NORAD_CAT_ID   = 67750
ELEMENT_SET_NO = 999
REV_AT_EPOCH   = 408
BSTAR          = .52098E-3
MEAN_MOTION_DOT = .1059E-3
MEAN_MOTION_DDOT = 0

CCSDS_OMM_VERS = 2.0
CREATION_DATE  = 
ORIGINATOR     = 

OBJECT_NAME    = 2026-027F
OBJECT_ID      = 2026-027F
CENTER_NAME    = EARTH
REF_FRAME      = TEME
TIME_SYSTEM    = UTC
MEAN_ELEMENT_THEORY = SGP/SGP4

EPOCH          = 2026-03-09T19:49:10.682112
MEAN_MOTION    = 15.18180546
ECCENTRICITY   = .00096725
INCLINATION    = 97.4922
RA_OF_ASC_NODE = 197.8630
ARG_OF_PERICENTER = 203.5802
MEAN_ANOMALY   = 156.4990

EPHEMERIS_TYPE = 0
CLASSIFICATION_TYPE = U
NORAD_CAT_ID   = 67751
ELEMENT_SET_NO = 999
REV_AT_EPOCH   = 388
BSTAR          = .22390931E-3
MEAN_MOTION_DOT = .4513E-4
MEAN_MOTION_DDOT = 0

